ONEWEB-0716             
1 55177U 23004AP  25163.46381042  .00000066  00000+0  13645-3 0  9992
2 55177  87.9070  79.4937 0001807  83.6093 276.5244 13.17652217118894
ONEWEB-0717             
1 55178U 23004AQ  25163.75069321 -.00000007  00000+0 -51255-4 0  9995
2 55178  87.9068  79.3950 0002300  57.5892 302.5462 13.17649489118981
ONEWEB-0719             
1 55179U 23004AR  25163.45706209  .00000058  00000+0  11574-3 0  9999
2 55179  87.9067  79.4381 0001722  78.7362 281.3962 13.17650772118890
ONEWEB-0530             
1 55796U 23029A   25163.54882367  .00000056  00000+0  10645-3 0  9997
2 55796  87.9262 348.1017 0001616  73.2663 286.8648 13.20774062113068
ONEWEB-0534             
1 55797U 23029B   25163.53620353  .00000088  00000+0  18356-3 0  9994
2 55797  87.9260 348.1114 0001720  93.5334 266.5996 13.20771862113045
ONEWEB-0556             
1 55798U 23029C   25162.55767501  .00000056  00000+0  10635-3 0  9990
2 55798  87.9260 348.2980 0000986  91.4458 268.6789 13.20771241112914
ONEWEB-0562             
1 55799U 23029D   25162.54505152  .00000072  00000+0  14484-3 0  9996
2 55799  87.9261 348.2938 0001286  58.6106 301.5153 13.20772276112908
ONEWEB-0563             
1 55800U 23029E   25163.52357717  .00000045  00000+0  78924-4 0  9990
2 55800  87.9256 348.1128 0001811 101.3816 258.7521 13.20771436113026
